{
  "type": "FeatureCollection",
  "name": "BUFFER POS DAMKAR EKSISTING",
  "crs": {
    "type": "name",
    "properties": {
      "name": "urn:ogc:def:crs:EPSG::32749"
    }
  },
  "features": [
    {
      "type": "Feature",
      "properties": {
        "fcode": null,
        "metadata": null,
        "namobj": "Pos Induk Wonosari",
        "remark": null,
        "srs_id": null,
        "id": 2,
        "coordinate": null,
        "dms": null,
        "nama": "Pos Damkar Bantul (Induk BPBD)",
        "alamat": "Besari, Siraman, Kec. Wonosari, Gunungkidul",
        "Kontak": 274391113.0,
        "Id": 1,
        "ID": 1,
        "Nama": "Pos Damkar Bantul (Induk BPBD)",
        "NAMA": "Pos Damkar Bantul (Induk BPBD)",
        "Kabupaten": "Kabupaten Bantul",
        "Kategori": "Eksisting"
      },
      "geometry": {
        "type": "MultiPolygon",
        "coordinates": [
          [
            [
              [
                461248.1328999996,
                9118840.3211
              ],
              [
                461155.79545446316,
                9117667.062612198
              ],
              [
                460881.05677221325,
                9116522.693642188
              ],
              [
                460430.68183141237,
                9115435.392351953
              ],
              [
                459815.7603578117,
                9114431.931707807
              ],
              [
                459051.43375889875,
                9113537.0202411
              ],
              [
                458156.52229219314,
                9112772.693642188
              ],
              [
                457153.06164804625,
                9112157.772168588
              ],
              [
                456065.7603578117,
                9111707.397227786
              ],
              [
                454921.3913878013,
                9111432.658545537
              ],
              [
                453748.1328999996,
                9111340.3211
              ],
              [
                452574.8744121979,
                9111432.658545537
              ],
              [
                451430.50544218754,
                9111707.397227786
              ],
              [
                450343.20415195305,
                9112157.772168588
              ],
              [
                449339.7435078061,
                9112772.693642188
              ],
              [
                448444.83204110054,
                9113537.0202411
              ],
              [
                447680.50544218754,
                9114431.931707807
              ],
              [
                447065.58396858687,
                9115435.392351953
              ],
              [
                446615.209027786,
                9116522.693642188
              ],
              [
                446340.4703455361,
                9117667.062612198
              ],
              [
                446248.1328999996,
                9118840.3211
              ],
              [
                446340.4703455361,
                9120013.579587802
              ],
              [
                446615.209027786,
                9121157.948557813
              ],
              [
                447065.58396858687,
                9122245.249848047
              ],
              [
                447680.50544218754,
                9123248.710492194
              ],
              [
                448444.8320411005,
                9124143.6219589
              ],
              [
                449339.7435078061,
                9124907.948557813
              ],
              [
                450343.204151953,
                9125522.870031413
              ],
              [
                451430.50544218754,
                9125973.244972214
              ],
              [
                452574.8744121979,
                9126247.983654464
              ],
              [
                453748.1328999996,
                9126340.3211
              ],
              [
                454921.3913878013,
                9126247.983654464
              ],
              [
                456065.7603578117,
                9125973.244972214
              ],
              [
                457153.0616480462,
                9125522.870031413
              ],
              [
                458156.52229219314,
                9124907.948557813
              ],
              [
                459051.4337588987,
                9124143.6219589
              ],
              [
                459815.7603578117,
                9123248.710492194
              ],
              [
                460430.68183141237,
                9122245.249848047
              ],
              [
                460881.05677221325,
                9121157.948557813
              ],
              [
                461155.79545446316,
                9120013.579587802
              ],
              [
                461248.1328999996,
                9118840.3211
              ]
            ]
          ]
        ]
      }
    },
    {
      "type": "Feature",
      "properties": {
        "fcode": null,
        "metadata": null,
        "namobj": "Damkar Kulon Progo",
        "remark": null,
        "srs_id": null,
        "id": 1,
        "coordinate": null,
        "dms": null,
        "nama": "Pos Damkar Wonosari",
        "alamat": "Kemiri, Margosari, Kec. Pengasih, Kabupaten Kulon Progo, Daerah Istimewa Yogyakarta 55652",
        "Kontak": 274775113.0,
        "Id": 2,
        "ID": 2,
        "Nama": "Pos Damkar Wonosari",
        "NAMA": "Pos Damkar Wonosari",
        "Kabupaten": "Kabupaten Gunungkidul",
        "Kategori": "Eksisting"
      },
      "geometry": {
        "type": "MultiPolygon",
        "coordinates": [
          [
            [
              [
                415447.03050000034,
                9131490.6779
              ],
              [
                415354.6930544639,
                9130317.419412198
              ],
              [
                415079.954372214,
                9129173.050442187
              ],
              [
                414629.5794314131,
                9128085.749151953
              ],
              [
                414014.6579578124,
                9127082.288507806
              ],
              [
                413250.3313588995,
                9126187.3770411
              ],
              [
                412355.41989219387,
                9125423.050442187
              ],
              [
                411351.959248047,
                9124808.128968587
              ],
              [
                410264.6579578124,
                9124357.754027786
              ],
              [
                409120.28898780205,
                9124083.015345536
              ],
              [
                407947.03050000034,
                9123990.6779
              ],
              [
                406773.77201219863,
                9124083.015345536
              ],
              [
                405629.40304218826,
                9124357.754027786
              ],
              [
                404542.10175195377,
                9124808.128968587
              ],
              [
                403538.6411078068,
                9125423.050442187
              ],
              [
                402643.72964110126,
                9126187.3770411
              ],
              [
                401879.40304218826,
                9127082.288507806
              ],
              [
                401264.4815685876,
                9128085.749151953
              ],
              [
                400814.1066277867,
                9129173.050442187
              ],
              [
                400539.3679455368,
                9130317.419412198
              ],
              [
                400447.03050000034,
                9131490.6779
              ],
              [
                400539.3679455368,
                9132663.936387802
              ],
              [
                400814.1066277867,
                9133808.305357812
              ],
              [
                401264.4815685876,
                9134895.606648047
              ],
              [
                401879.40304218826,
                9135899.067292193
              ],
              [
                402643.7296411012,
                9136793.9787589
              ],
              [
                403538.6411078068,
                9137558.305357812
              ],
              [
                404542.1017519537,
                9138173.226831412
              ],
              [
                405629.40304218826,
                9138623.601772213
              ],
              [
                406773.77201219863,
                9138898.340454463
              ],
              [
                407947.03050000034,
                9138990.6779
              ],
              [
                409120.28898780205,
                9138898.340454463
              ],
              [
                410264.6579578124,
                9138623.601772213
              ],
              [
                411351.9592480469,
                9138173.226831412
              ],
              [
                412355.41989219387,
                9137558.305357812
              ],
              [
                413250.3313588994,
                9136793.9787589
              ],
              [
                414014.6579578124,
                9135899.067292193
              ],
              [
                414629.5794314131,
                9134895.606648047
              ],
              [
                415079.954372214,
                9133808.305357812
              ],
              [
                415354.6930544639,
                9132663.936387802
              ],
              [
                415447.03050000034,
                9131490.6779
              ]
            ]
          ]
        ]
      }
    },
    {
      "type": "Feature",
      "properties": {
        "fcode": null,
        "metadata": null,
        "namobj": "Pos Damkar Unit 2",
        "remark": null,
        "srs_id": null,
        "id": 3,
        "coordinate": null,
        "dms": null,
        "nama": "Pos Damkar Wates",
        "alamat": "Jl. Sentolo Nanggulan, Jati Ngarang Lor, Jati Sarono, Kec. Nanggulan, Kabupaten Kulon Progo, Daerah Istimewa Yogyakarta 55671",
        "Kontak": 274587101.0,
        "Id": 3,
        "ID": 3,
        "Nama": "Pos Damkar Wates",
        "NAMA": "Pos Damkar Wates",
        "Kabupaten": "Kabupaten Kulon Progo",
        "Kategori": "Eksisting"
      },
      "geometry": {
        "type": "MultiPolygon",
        "coordinates": [
          [
            [
              [
                420410.7803999996,
                9142020.8178
              ],
              [
                420318.4429544631,
                9140847.559312198
              ],
              [
                420043.7042722132,
                9139703.190342188
              ],
              [
                419593.32933141233,
                9138615.889051953
              ],
              [
                418978.40785781166,
                9137612.428407807
              ],
              [
                418214.0812588987,
                9136717.5169411
              ],
              [
                417319.1697921931,
                9135953.190342188
              ],
              [
                416315.7091480462,
                9135338.268868588
              ],
              [
                415228.40785781166,
                9134887.893927786
              ],
              [
                414084.0388878013,
                9134613.155245537
              ],
              [
                412910.7803999996,
                9134520.8178
              ],
              [
                411737.5219121979,
                9134613.155245537
              ],
              [
                410593.1529421875,
                9134887.893927786
              ],
              [
                409505.851651953,
                9135338.268868588
              ],
              [
                408502.39100780606,
                9135953.190342188
              ],
              [
                407607.4795411005,
                9136717.5169411
              ],
              [
                406843.1529421875,
                9137612.428407807
              ],
              [
                406228.23146858683,
                9138615.889051953
              ],
              [
                405777.85652778595,
                9139703.190342188
              ],
              [
                405503.11784553604,
                9140847.559312198
              ],
              [
                405410.7803999996,
                9142020.8178
              ],
              [
                405503.11784553604,
                9143194.076287802
              ],
              [
                405777.85652778595,
                9144338.445257813
              ],
              [
                406228.23146858683,
                9145425.746548047
              ],
              [
                406843.1529421875,
                9146429.207192194
              ],
              [
                407607.47954110045,
                9147324.1186589
              ],
              [
                408502.39100780606,
                9148088.445257813
              ],
              [
                409505.85165195295,
                9148703.366731413
              ],
              [
                410593.1529421875,
                9149153.741672214
              ],
              [
                411737.5219121979,
                9149428.480354464
              ],
              [
                412910.7803999996,
                9149520.8178
              ],
              [
                414084.0388878013,
                9149428.480354464
              ],
              [
                415228.40785781166,
                9149153.741672214
              ],
              [
                416315.70914804615,
                9148703.366731413
              ],
              [
                417319.1697921931,
                9148088.445257813
              ],
              [
                418214.08125889866,
                9147324.1186589
              ],
              [
                418978.40785781166,
                9146429.207192194
              ],
              [
                419593.32933141233,
                9145425.746548047
              ],
              [
                420043.7042722132,
                9144338.445257813
              ],
              [
                420318.4429544631,
                9143194.076287802
              ],
              [
                420410.7803999996,
                9142020.8178
              ]
            ]
          ]
        ]
      }
    },
    {
      "type": "Feature",
      "properties": {
        "fcode": null,
        "metadata": null,
        "namobj": "Pos Kyai Mojo",
        "remark": null,
        "srs_id": null,
        "id": 4,
        "coordinate": null,
        "dms": null,
        "nama": "Pos Damkar Kalibawang / Nanggulan",
        "alamat": "Jl. Kyai Mojo No.70C, Bener, Kec. Tegalrejo, Kota Yogyakarta, Daerah Istimewa Yogyakarta 55244",
        "Kontak": 274587101.0,
        "Id": 4,
        "ID": 4,
        "Nama": "Pos Damkar Kalibawang / Nanggulan",
        "NAMA": "Pos Damkar Kalibawang / Nanggulan",
        "Kabupaten": "Kabupaten Kulon Progo",
        "Kategori": "Eksisting"
      },
      "geometry": {
        "type": "MultiPolygon",
        "coordinates": [
          [
            [
              [
                436397.1673999997,
                9139737.1964
              ],
              [
                436304.82995446323,
                9138563.937912198
              ],
              [
                436030.0912722133,
                9137419.568942187
              ],
              [
                435579.71633141243,
                9136332.267651953
              ],
              [
                434964.79485781176,
                9135328.807007806
              ],
              [
                434200.4682588988,
                9134433.8955411
              ],
              [
                433305.5567921932,
                9133669.568942187
              ],
              [
                432302.0961480463,
                9133054.647468587
              ],
              [
                431214.79485781176,
                9132604.272527786
              ],
              [
                430070.4258878014,
                9132329.533845536
              ],
              [
                428897.1673999997,
                9132237.1964
              ],
              [
                427723.908912198,
                9132329.533845536
              ],
              [
                426579.5399421876,
                9132604.272527786
              ],
              [
                425492.2386519531,
                9133054.647468587
              ],
              [
                424488.77800780616,
                9133669.568942187
              ],
              [
                423593.8665411006,
                9134433.8955411
              ],
              [
                422829.5399421876,
                9135328.807007806
              ],
              [
                422214.61846858694,
                9136332.267651953
              ],
              [
                421764.24352778605,
                9137419.568942187
              ],
              [
                421489.50484553614,
                9138563.937912198
              ],
              [
                421397.1673999997,
                9139737.1964
              ],
              [
                421489.50484553614,
                9140910.454887802
              ],
              [
                421764.24352778605,
                9142054.823857812
              ],
              [
                422214.61846858694,
                9143142.125148047
              ],
              [
                422829.5399421876,
                9144145.585792193
              ],
              [
                423593.86654110055,
                9145040.4972589
              ],
              [
                424488.77800780616,
                9145804.823857812
              ],
              [
                425492.23865195306,
                9146419.745331412
              ],
              [
                426579.5399421876,
                9146870.120272214
              ],
              [
                427723.908912198,
                9147144.858954463
              ],
              [
                428897.1673999997,
                9147237.1964
              ],
              [
                430070.4258878014,
                9147144.858954463
              ],
              [
                431214.79485781176,
                9146870.120272214
              ],
              [
                432302.09614804626,
                9146419.745331412
              ],
              [
                433305.5567921932,
                9145804.823857812
              ],
              [
                434200.46825889876,
                9145040.4972589
              ],
              [
                434964.79485781176,
                9144145.585792193
              ],
              [
                435579.71633141243,
                9143142.125148047
              ],
              [
                436030.0912722133,
                9142054.823857812
              ],
              [
                436304.82995446323,
                9140910.454887802
              ],
              [
                436397.1673999997,
                9139737.1964
              ]
            ]
          ]
        ]
      }
    },
    {
      "type": "Feature",
      "properties": {
        "fcode": null,
        "metadata": null,
        "namobj": "Mako Induk",
        "remark": null,
        "srs_id": null,
        "id": 5,
        "coordinate": null,
        "dms": null,
        "nama": "Pos Damkar Kyai Mojo",
        "alamat": "Komplek Balaikota Yogyakarta, Jl. Kenari No.56 Yogyakarta · Nomor Telepon : (0274) 587101, 542885",
        "Kontak": 274587101.0,
        "Id": 5,
        "ID": 5,
        "Nama": "Pos Damkar Kyai Mojo",
        "NAMA": "Pos Damkar Kyai Mojo",
        "Kabupaten": "Kota Yogyakarta",
        "Kategori": "Eksisting"
      },
      "geometry": {
        "type": "MultiPolygon",
        "coordinates": [
          [
            [
              [
                440456.35929999966,
                9137657.6985
              ],
              [
                440364.0218544632,
                9136484.440012198
              ],
              [
                440089.2831722133,
                9135340.071042188
              ],
              [
                439638.9082314124,
                9134252.769751953
              ],
              [
                439023.98675781174,
                9133249.309107807
              ],
              [
                438259.6601588988,
                9132354.3976411
              ],
              [
                437364.7486921932,
                9131590.071042188
              ],
              [
                436361.2880480463,
                9130975.149568588
              ],
              [
                435273.98675781174,
                9130524.774627786
              ],
              [
                434129.61778780137,
                9130250.035945537
              ],
              [
                432956.35929999966,
                9130157.6985
              ],
              [
                431783.10081219795,
                9130250.035945537
              ],
              [
                430638.7318421876,
                9130524.774627786
              ],
              [
                429551.4305519531,
                9130975.149568588
              ],
              [
                428547.96990780614,
                9131590.071042188
              ],
              [
                427653.0584411006,
                9132354.3976411
              ],
              [
                426888.7318421876,
                9133249.309107807
              ],
              [
                426273.8103685869,
                9134252.769751953
              ],
              [
                425823.435427786,
                9135340.071042188
              ],
              [
                425548.6967455361,
                9136484.440012198
              ],
              [
                425456.35929999966,
                9137657.6985
              ],
              [
                425548.6967455361,
                9138830.956987802
              ],
              [
                425823.435427786,
                9139975.325957812
              ],
              [
                426273.8103685869,
                9141062.627248047
              ],
              [
                426888.7318421876,
                9142066.087892193
              ],
              [
                427653.0584411005,
                9142960.9993589
              ],
              [
                428547.96990780614,
                9143725.325957812
              ],
              [
                429551.43055195303,
                9144340.247431412
              ],
              [
                430638.7318421876,
                9144790.622372214
              ],
              [
                431783.10081219795,
                9145065.361054463
              ],
              [
                432956.35929999966,
                9145157.6985
              ],
              [
                434129.61778780137,
                9145065.361054463
              ],
              [
                435273.98675781174,
                9144790.622372214
              ],
              [
                436361.28804804623,
                9144340.247431412
              ],
              [
                437364.7486921932,
                9143725.325957812
              ],
              [
                438259.66015889874,
                9142960.9993589
              ],
              [
                439023.98675781174,
                9142066.087892193
              ],
              [
                439638.9082314124,
                9141062.627248047
              ],
              [
                440089.2831722133,
                9139975.325957812
              ],
              [
                440364.0218544632,
                9138830.956987802
              ],
              [
                440456.35929999966,
                9137657.6985
              ]
            ]
          ]
        ]
      }
    },
    {
      "type": "Feature",
      "properties": {
        "fcode": null,
        "metadata": null,
        "namobj": "Mako Damkar Sleman",
        "remark": null,
        "srs_id": null,
        "id": 6,
        "coordinate": null,
        "dms": null,
        "nama": "Pos Damkar Balaikota Timoho",
        "alamat": "Jln. Candi Gebang, Beran Kidul, Tridadi, Sleman",
        "Kontak": 274868351.0,
        "Id": 6,
        "ID": 6,
        "Nama": "Pos Damkar Balaikota Timoho",
        "NAMA": "Pos Damkar Balaikota Timoho",
        "Kabupaten": "Kota Yogyakarta",
        "Kategori": "Eksisting"
      },
      "geometry": {
        "type": "MultiPolygon",
        "coordinates": [
          [
            [
              [
                436398.98819999956,
                9146861.6446
              ],
              [
                436306.6507544631,
                9145688.386112198
              ],
              [
                436031.9120722132,
                9144544.017142188
              ],
              [
                435581.5371314123,
                9143456.715851953
              ],
              [
                434966.61565781164,
                9142453.255207807
              ],
              [
                434202.2890588987,
                9141558.3437411
              ],
              [
                433307.3775921931,
                9140794.017142188
              ],
              [
                432303.9169480462,
                9140179.095668588
              ],
              [
                431216.61565781164,
                9139728.720727786
              ],
              [
                430072.24668780126,
                9139453.982045537
              ],
              [
                428898.98819999956,
                9139361.6446
              ],
              [
                427725.72971219785,
                9139453.982045537
              ],
              [
                426581.3607421875,
                9139728.720727786
              ],
              [
                425494.059451953,
                9140179.095668588
              ],
              [
                424490.59880780603,
                9140794.017142188
              ],
              [
                423595.6873411005,
                9141558.3437411
              ],
              [
                422831.3607421875,
                9142453.255207807
              ],
              [
                422216.4392685868,
                9143456.715851953
              ],
              [
                421766.0643277859,
                9144544.017142188
              ],
              [
                421491.325645536,
                9145688.386112198
              ],
              [
                421398.98819999956,
                9146861.6446
              ],
              [
                421491.325645536,
                9148034.903087802
              ],
              [
                421766.0643277859,
                9149179.272057813
              ],
              [
                422216.4392685868,
                9150266.573348047
              ],
              [
                422831.3607421875,
                9151270.033992194
              ],
              [
                423595.6873411004,
                9152164.9454589
              ],
              [
                424490.59880780603,
                9152929.272057813
              ],
              [
                425494.0594519529,
                9153544.193531413
              ],
              [
                426581.3607421875,
                9153994.568472214
              ],
              [
                427725.72971219785,
                9154269.307154464
              ],
              [
                428898.98819999956,
                9154361.6446
              ],
              [
                430072.24668780126,
                9154269.307154464
              ],
              [
                431216.61565781164,
                9153994.568472214
              ],
              [
                432303.9169480461,
                9153544.193531413
              ],
              [
                433307.3775921931,
                9152929.272057813
              ],
              [
                434202.28905889863,
                9152164.9454589
              ],
              [
                434966.61565781164,
                9151270.033992194
              ],
              [
                435581.5371314123,
                9150266.573348047
              ],
              [
                436031.9120722132,
                9149179.272057813
              ],
              [
                436306.6507544631,
                9148034.903087802
              ],
              [
                436398.98819999956,
                9146861.6446
              ]
            ]
          ]
        ]
      }
    },
    {
      "type": "Feature",
      "properties": {
        "fcode": null,
        "metadata": null,
        "namobj": "Pos Damkar Godean",
        "remark": null,
        "srs_id": null,
        "id": 7,
        "coordinate": null,
        "dms": null,
        "nama": "Pos Damkar Tridadi (Induk Sleman)",
        "alamat": "Senuko, Sidoagung, Godean, Sleman",
        "Kontak": 2742821346.0,
        "Id": 7,
        "ID": 7,
        "Nama": "Pos Damkar Tridadi (Induk Sleman)",
        "NAMA": "Pos Damkar Tridadi (Induk Sleman)",
        "Kabupaten": "Kabupaten Sleman",
        "Kategori": "Eksisting"
      },
      "geometry": {
        "type": "MultiPolygon",
        "coordinates": [
          [
            [
              [
                430362.68429999985,
                9141072.0911
              ],
              [
                430270.3468544634,
                9139898.832612198
              ],
              [
                429995.6081722135,
                9138754.463642187
              ],
              [
                429545.2332314126,
                9137667.162351953
              ],
              [
                428930.3117578119,
                9136663.701707806
              ],
              [
                428165.985158899,
                9135768.7902411
              ],
              [
                427271.0736921934,
                9135004.463642187
              ],
              [
                426267.6130480465,
                9134389.542168587
              ],
              [
                425180.3117578119,
                9133939.167227786
              ],
              [
                424035.94278780156,
                9133664.428545536
              ],
              [
                422862.68429999985,
                9133572.0911
              ],
              [
                421689.42581219814,
                9133664.428545536
              ],
              [
                420545.05684218777,
                9133939.167227786
              ],
              [
                419457.7555519533,
                9134389.542168587
              ],
              [
                418454.2949078063,
                9135004.463642187
              ],
              [
                417559.38344110077,
                9135768.7902411
              ],
              [
                416795.05684218777,
                9136663.701707806
              ],
              [
                416180.1353685871,
                9137667.162351953
              ],
              [
                415729.7604277862,
                9138754.463642187
              ],
              [
                415455.0217455363,
                9139898.832612198
              ],
              [
                415362.68429999985,
                9141072.0911
              ],
              [
                415455.0217455363,
                9142245.349587802
              ],
              [
                415729.7604277862,
                9143389.718557812
              ],
              [
                416180.1353685871,
                9144477.019848047
              ],
              [
                416795.05684218777,
                9145480.480492193
              ],
              [
                417559.3834411007,
                9146375.3919589
              ],
              [
                418454.2949078063,
                9147139.718557812
              ],
              [
                419457.7555519532,
                9147754.640031412
              ],
              [
                420545.05684218777,
                9148205.014972214
              ],
              [
                421689.42581219814,
                9148479.753654463
              ],
              [
                422862.68429999985,
                9148572.0911
              ],
              [
                424035.94278780156,
                9148479.753654463
              ],
              [
                425180.3117578119,
                9148205.014972214
              ],
              [
                426267.6130480464,
                9147754.640031412
              ],
              [
                427271.0736921934,
                9147139.718557812
              ],
              [
                428165.9851588989,
                9146375.3919589
              ],
              [
                428930.3117578119,
                9145480.480492193
              ],
              [
                429545.2332314126,
                9144477.019848047
              ],
              [
                429995.6081722135,
                9143389.718557812
              ],
              [
                430270.3468544634,
                9142245.349587802
              ],
              [
                430362.68429999985,
                9141072.0911
              ]
            ]
          ]
        ]
      }
    },
    {
      "type": "Feature",
      "properties": {
        "fcode": null,
        "metadata": null,
        "namobj": "Sektor Banguntapan",
        "remark": null,
        "srs_id": null,
        "id": 8,
        "coordinate": null,
        "dms": null,
        "nama": "Pos Damkar Godean",
        "alamat": "Bumiwetan, Baturetno, Banguntapan, Bantul",
        "Kontak": 2746462100.0,
        "Id": 8,
        "ID": 8,
        "Nama": "Pos Damkar Godean",
        "NAMA": "Pos Damkar Godean",
        "Kabupaten": "Kabupaten Sleman",
        "Kategori": "Eksisting"
      },
      "geometry": {
        "type": "MultiPolygon",
        "coordinates": [
          [
            [
              [
                443300.1540000001,
                9134484.937
              ],
              [
                443207.81655446364,
                9133311.678512199
              ],
              [
                442933.07787221373,
                9132167.309542188
              ],
              [
                442482.70293141284,
                9131080.008251954
              ],
              [
                441867.7814578122,
                9130076.547607807
              ],
              [
                441103.45485889923,
                9129181.6361411
              ],
              [
                440208.5433921936,
                9128417.309542188
              ],
              [
                439205.0827480467,
                9127802.388068588
              ],
              [
                438117.7814578122,
                9127352.013127787
              ],
              [
                436973.4124878018,
                9127077.274445537
              ],
              [
                435800.1540000001,
                9126984.937
              ],
              [
                434626.8955121984,
                9127077.274445537
              ],
              [
                433482.526542188,
                9127352.013127787
              ],
              [
                432395.2252519535,
                9127802.388068588
              ],
              [
                431391.7646078066,
                9128417.309542188
              ],
              [
                430496.853141101,
                9129181.6361411
              ],
              [
                429732.526542188,
                9130076.547607807
              ],
              [
                429117.60506858735,
                9131080.008251954
              ],
              [
                428667.23012778646,
                9132167.309542188
              ],
              [
                428392.49144553655,
                9133311.678512199
              ],
              [
                428300.1540000001,
                9134484.937
              ],
              [
                428392.49144553655,
                9135658.195487803
              ],
              [
                428667.23012778646,
                9136802.564457813
              ],
              [
                429117.60506858735,
                9137889.865748048
              ],
              [
                429732.526542188,
                9138893.326392194
              ],
              [
                430496.85314110096,
                9139788.2378589
              ],
              [
                431391.7646078066,
                9140552.564457813
              ],
              [
                432395.22525195347,
                9141167.485931413
              ],
              [
                433482.526542188,
                9141617.860872215
              ],
              [
                434626.8955121984,
                9141892.599554464
              ],
              [
                435800.1540000001,
                9141984.937
              ],
              [
                436973.4124878018,
                9141892.599554464
              ],
              [
                438117.7814578122,
                9141617.860872215
              ],
              [
                439205.08274804667,
                9141167.485931413
              ],
              [
                440208.5433921936,
                9140552.564457813
              ],
              [
                441103.4548588992,
                9139788.2378589
              ],
              [
                441867.7814578122,
                9138893.326392194
              ],
              [
                442482.70293141284,
                9137889.865748048
              ],
              [
                442933.07787221373,
                9136802.564457813
              ],
              [
                443207.81655446364,
                9135658.195487803
              ],
              [
                443300.1540000001,
                9134484.937
              ]
            ]
          ]
        ]
      }
    },
    {
      "type": "Feature",
      "properties": {
        "fcode": null,
        "metadata": null,
        "namobj": "Sektor Piyungan",
        "remark": null,
        "srs_id": null,
        "id": 9,
        "coordinate": null,
        "dms": null,
        "nama": "Pos Damkar Banguntapan",
        "alamat": "Onggopatran, Srimulyo, Piyungan, Bantul",
        "Kontak": 2746462100.0,
        "Id": 9,
        "ID": 9,
        "Nama": "Pos Damkar Banguntapan",
        "NAMA": "Pos Damkar Banguntapan",
        "Kabupaten": "Kabupaten Bantul",
        "Kategori": "Eksisting"
      },
      "geometry": {
        "type": "MultiPolygon",
        "coordinates": [
          [
            [
              [
                448674.6403000001,
                9133970.3697
              ],
              [
                448582.30285446363,
                9132797.111212198
              ],
              [
                448307.5641722137,
                9131652.742242187
              ],
              [
                447857.18923141283,
                9130565.440951953
              ],
              [
                447242.26775781217,
                9129561.980307806
              ],
              [
                446477.9411588992,
                9128667.0688411
              ],
              [
                445583.0296921936,
                9127902.742242187
              ],
              [
                444579.5690480467,
                9127287.820768587
              ],
              [
                443492.26775781217,
                9126837.445827786
              ],
              [
                442347.8987878018,
                9126562.707145536
              ],
              [
                441174.6403000001,
                9126470.3697
              ],
              [
                440001.3818121984,
                9126562.707145536
              ],
              [
                438857.012842188,
                9126837.445827786
              ],
              [
                437769.7115519535,
                9127287.820768587
              ],
              [
                436766.25090780656,
                9127902.742242187
              ],
              [
                435871.339441101,
                9128667.0688411
              ],
              [
                435107.012842188,
                9129561.980307806
              ],
              [
                434492.09136858734,
                9130565.440951953
              ],
              [
                434041.71642778645,
                9131652.742242187
              ],
              [
                433766.97774553654,
                9132797.111212198
              ],
              [
                433674.6403000001,
                9133970.3697
              ],
              [
                433766.97774553654,
                9135143.628187802
              ],
              [
                434041.71642778645,
                9136287.997157812
              ],
              [
                434492.09136858734,
                9137375.298448047
              ],
              [
                435107.012842188,
                9138378.759092193
              ],
              [
                435871.33944110095,
                9139273.6705589
              ],
              [
                436766.25090780656,
                9140037.997157812
              ],
              [
                437769.71155195346,
                9140652.918631412
              ],
              [
                438857.012842188,
                9141103.293572214
              ],
              [
                440001.3818121984,
                9141378.032254463
              ],
              [
                441174.6403000001,
                9141470.3697
              ],
              [
                442347.8987878018,
                9141378.032254463
              ],
              [
                443492.26775781217,
                9141103.293572214
              ],
              [
                444579.56904804666,
                9140652.918631412
              ],
              [
                445583.0296921936,
                9140037.997157812
              ],
              [
                446477.94115889916,
                9139273.6705589
              ],
              [
                447242.26775781217,
                9138378.759092193
              ],
              [
                447857.18923141283,
                9137375.298448047
              ],
              [
                448307.5641722137,
                9136287.997157812
              ],
              [
                448582.30285446363,
                9135143.628187802
              ],
              [
                448674.6403000001,
                9133970.3697
              ]
            ]
          ]
        ]
      }
    },
    {
      "type": "Feature",
      "properties": {
        "fcode": null,
        "metadata": null,
        "namobj": "Sektor Sedayu",
        "remark": null,
        "srs_id": null,
        "id": 10,
        "coordinate": null,
        "dms": null,
        "nama": "Pos Damkar Piyungan",
        "alamat": "Jl. Sedayu-Pajangan, Semampir, Argorejo, Sedayu, Bantul",
        "Kontak": 2746462100.0,
        "Id": 10,
        "ID": 10,
        "Nama": "Pos Damkar Piyungan",
        "NAMA": "Pos Damkar Piyungan",
        "Kabupaten": "Kabupaten Bantul",
        "Kategori": "Eksisting"
      },
      "geometry": {
        "type": "MultiPolygon",
        "coordinates": [
          [
            [
              [
                425557.29590000026,
                9135933.1311
              ],
              [
                425464.9584544638,
                9134759.872612199
              ],
              [
                425190.2197722139,
                9133615.503642188
              ],
              [
                424739.844831413,
                9132528.202351954
              ],
              [
                424124.92335781234,
                9131524.741707807
              ],
              [
                423360.5967588994,
                9130629.8302411
              ],
              [
                422465.6852921938,
                9129865.503642188
              ],
              [
                421462.2246480469,
                9129250.582168588
              ],
              [
                420374.92335781234,
                9128800.207227787
              ],
              [
                419230.55438780197,
                9128525.468545537
              ],
              [
                418057.29590000026,
                9128433.1311
              ],
              [
                416884.03741219855,
                9128525.468545537
              ],
              [
                415739.6684421882,
                9128800.207227787
              ],
              [
                414652.3671519537,
                9129250.582168588
              ],
              [
                413648.90650780674,
                9129865.503642188
              ],
              [
                412753.9950411012,
                9130629.8302411
              ],
              [
                411989.6684421882,
                9131524.741707807
              ],
              [
                411374.7469685875,
                9132528.202351954
              ],
              [
                410924.3720277866,
                9133615.503642188
              ],
              [
                410649.6333455367,
                9134759.872612199
              ],
              [
                410557.29590000026,
                9135933.1311
              ],
              [
                410649.6333455367,
                9137106.389587803
              ],
              [
                410924.3720277866,
                9138250.758557813
              ],
              [
                411374.7469685875,
                9139338.059848048
              ],
              [
                411989.6684421882,
                9140341.520492194
              ],
              [
                412753.9950411011,
                9141236.4319589
              ],
              [
                413648.90650780674,
                9142000.758557813
              ],
              [
                414652.36715195363,
                9142615.680031413
              ],
              [
                415739.6684421882,
                9143066.054972215
              ],
              [
                416884.03741219855,
                9143340.793654464
              ],
              [
                418057.29590000026,
                9143433.1311
              ],
              [
                419230.55438780197,
                9143340.793654464
              ],
              [
                420374.92335781234,
                9143066.054972215
              ],
              [
                421462.22464804683,
                9142615.680031413
              ],
              [
                422465.6852921938,
                9142000.758557813
              ],
              [
                423360.59675889934,
                9141236.4319589
              ],
              [
                424124.92335781234,
                9140341.520492194
              ],
              [
                424739.844831413,
                9139338.059848048
              ],
              [
                425190.2197722139,
                9138250.758557813
              ],
              [
                425464.9584544638,
                9137106.389587803
              ],
              [
                425557.29590000026,
                9135933.1311
              ]
            ]
          ]
        ]
      }
    },
    {
      "type": "Feature",
      "properties": {
        "fcode": null,
        "metadata": null,
        "namobj": "Sektor Kasihan",
        "remark": null,
        "srs_id": null,
        "id": 11,
        "coordinate": null,
        "dms": null,
        "nama": "Pos Damkar Sedayu",
        "alamat": "Kembaran, Tamantirto, Kasihan, Bantul",
        "Kontak": 2746462100.0,
        "Id": 11,
        "ID": 11,
        "Nama": "Pos Damkar Sedayu",
        "NAMA": "Pos Damkar Sedayu",
        "Kabupaten": "Kabupaten Bantul",
        "Kategori": "Eksisting"
      },
      "geometry": {
        "type": "MultiPolygon",
        "coordinates": [
          [
            [
              [
                434273.0418999996,
                9134505.8583
              ],
              [
                434180.70445446315,
                9133332.599812198
              ],
              [
                433905.96577221324,
                9132188.230842188
              ],
              [
                433455.59083141235,
                9131100.929551953
              ],
              [
                432840.6693578117,
                9130097.468907807
              ],
              [
                432076.34275889874,
                9129202.5574411
              ],
              [
                431181.4312921931,
                9128438.230842188
              ],
              [
                430177.97064804623,
                9127823.309368588
              ],
              [
                429090.6693578117,
                9127372.934427787
              ],
              [
                427946.3003878013,
                9127098.195745537
              ],
              [
                426773.0418999996,
                9127005.8583
              ],
              [
                425599.7834121979,
                9127098.195745537
              ],
              [
                424455.4144421875,
                9127372.934427787
              ],
              [
                423368.11315195303,
                9127823.309368588
              ],
              [
                422364.6525078061,
                9128438.230842188
              ],
              [
                421469.7410411005,
                9129202.5574411
              ],
              [
                420705.4144421875,
                9130097.468907807
              ],
              [
                420090.49296858686,
                9131100.929551953
              ],
              [
                419640.11802778597,
                9132188.230842188
              ],
              [
                419365.37934553606,
                9133332.599812198
              ],
              [
                419273.0418999996,
                9134505.8583
              ],
              [
                419365.37934553606,
                9135679.116787802
              ],
              [
                419640.11802778597,
                9136823.485757813
              ],
              [
                420090.49296858686,
                9137910.787048047
              ],
              [
                420705.4144421875,
                9138914.247692194
              ],
              [
                421469.74104110047,
                9139809.1591589
              ],
              [
                422364.6525078061,
                9140573.485757813
              ],
              [
                423368.113151953,
                9141188.407231413
              ],
              [
                424455.4144421875,
                9141638.782172214
              ],
              [
                425599.7834121979,
                9141913.520854464
              ],
              [
                426773.0418999996,
                9142005.8583
              ],
              [
                427946.3003878013,
                9141913.520854464
              ],
              [
                429090.6693578117,
                9141638.782172214
              ],
              [
                430177.9706480462,
                9141188.407231413
              ],
              [
                431181.4312921931,
                9140573.485757813
              ],
              [
                432076.3427588987,
                9139809.1591589
              ],
              [
                432840.6693578117,
                9138914.247692194
              ],
              [
                433455.59083141235,
                9137910.787048047
              ],
              [
                433905.96577221324,
                9136823.485757813
              ],
              [
                434180.70445446315,
                9135679.116787802
              ],
              [
                434273.0418999996,
                9134505.8583
              ]
            ]
          ]
        ]
      }
    },
    {
      "type": "Feature",
      "properties": {
        "fcode": null,
        "metadata": null,
        "namobj": "Sektor Imogiri",
        "remark": null,
        "srs_id": null,
        "id": 12,
        "coordinate": null,
        "dms": null,
        "nama": "Pos Damkar Kasihan",
        "alamat": "Jl. Pramuka, Singosaren, Wukirsari, Imogiri, Bantul",
        "Kontak": 2746462100.0,
        "Id": 12,
        "ID": 12,
        "Nama": "Pos Damkar Kasihan",
        "NAMA": "Pos Damkar Kasihan",
        "Kabupaten": "Kabupaten Bantul",
        "Kategori": "Eksisting"
      },
      "geometry": {
        "type": "MultiPolygon",
        "coordinates": [
          [
            [
              [
                439905.38659999985,
                9125659.3868
              ],
              [
                439813.0491544634,
                9124486.128312198
              ],
              [
                439538.3104722135,
                9123341.759342188
              ],
              [
                439087.9355314126,
                9122254.458051953
              ],
              [
                438473.01405781193,
                9121250.997407807
              ],
              [
                437708.687458899,
                9120356.0859411
              ],
              [
                436813.7759921934,
                9119591.759342188
              ],
              [
                435810.3153480465,
                9118976.837868588
              ],
              [
                434723.01405781193,
                9118526.462927787
              ],
              [
                433578.64508780156,
                9118251.724245537
              ],
              [
                432405.38659999985,
                9118159.3868
              ],
              [
                431232.12811219814,
                9118251.724245537
              ],
              [
                430087.7591421878,
                9118526.462927787
              ],
              [
                429000.4578519533,
                9118976.837868588
              ],
              [
                427996.99720780633,
                9119591.759342188
              ],
              [
                427102.0857411008,
                9120356.0859411
              ],
              [
                426337.7591421878,
                9121250.997407807
              ],
              [
                425722.8376685871,
                9122254.458051953
              ],
              [
                425272.4627277862,
                9123341.759342188
              ],
              [
                424997.7240455363,
                9124486.128312198
              ],
              [
                424905.38659999985,
                9125659.3868
              ],
              [
                424997.7240455363,
                9126832.645287802
              ],
              [
                425272.4627277862,
                9127977.014257813
              ],
              [
                425722.8376685871,
                9129064.315548047
              ],
              [
                426337.7591421878,
                9130067.776192194
              ],
              [
                427102.0857411007,
                9130962.6876589
              ],
              [
                427996.99720780633,
                9131727.014257813
              ],
              [
                429000.4578519532,
                9132341.935731413
              ],
              [
                430087.7591421878,
                9132792.310672214
              ],
              [
                431232.12811219814,
                9133067.049354464
              ],
              [
                432405.38659999985,
                9133159.3868
              ],
              [
                433578.64508780156,
                9133067.049354464
              ],
              [
                434723.01405781193,
                9132792.310672214
              ],
              [
                435810.3153480464,
                9132341.935731413
              ],
              [
                436813.7759921934,
                9131727.014257813
              ],
              [
                437708.68745889893,
                9130962.6876589
              ],
              [
                438473.01405781193,
                9130067.776192194
              ],
              [
                439087.9355314126,
                9129064.315548047
              ],
              [
                439538.3104722135,
                9127977.014257813
              ],
              [
                439813.0491544634,
                9126832.645287802
              ],
              [
                439905.38659999985,
                9125659.3868
              ]
            ]
          ]
        ]
      }
    },
    {
      "type": "Feature",
      "properties": {
        "fcode": null,
        "metadata": null,
        "namobj": "Sektor Pundong",
        "remark": null,
        "srs_id": null,
        "id": 13,
        "coordinate": null,
        "dms": null,
        "nama": "Pos Damkar Imogiri",
        "alamat": "Piring, Srihardono, Pundong, Bantul",
        "Kontak": 2746462100.0,
        "Id": 13,
        "ID": 13,
        "Nama": "Pos Damkar Imogiri",
        "NAMA": "Pos Damkar Imogiri",
        "Kabupaten": "Kabupaten Bantul",
        "Kategori": "Eksisting"
      },
      "geometry": {
        "type": "MultiPolygon",
        "coordinates": [
          [
            [
              [
                435168.7505999999,
                9120351.9026
              ],
              [
                435076.41315446346,
                9119178.644112198
              ],
              [
                434801.67447221355,
                9118034.275142187
              ],
              [
                434351.29953141266,
                9116946.973851953
              ],
              [
                433736.378057812,
                9115943.513207806
              ],
              [
                432972.05145889905,
                9115048.6017411
              ],
              [
                432077.13999219344,
                9114284.275142187
              ],
              [
                431073.67934804654,
                9113669.353668587
              ],
              [
                429986.378057812,
                9113218.978727786
              ],
              [
                428842.0090878016,
                9112944.240045536
              ],
              [
                427668.7505999999,
                9112851.9026
              ],
              [
                426495.4921121982,
                9112944.240045536
              ],
              [
                425351.12314218783,
                9113218.978727786
              ],
              [
                424263.82185195334,
                9113669.353668587
              ],
              [
                423260.3612078064,
                9114284.275142187
              ],
              [
                422365.44974110083,
                9115048.6017411
              ],
              [
                421601.12314218783,
                9115943.513207806
              ],
              [
                420986.20166858716,
                9116946.973851953
              ],
              [
                420535.8267277863,
                9118034.275142187
              ],
              [
                420261.08804553637,
                9119178.644112198
              ],
              [
                420168.7505999999,
                9120351.9026
              ],
              [
                420261.08804553637,
                9121525.161087802
              ],
              [
                420535.8267277863,
                9122669.530057812
              ],
              [
                420986.20166858716,
                9123756.831348047
              ],
              [
                421601.12314218783,
                9124760.291992193
              ],
              [
                422365.4497411008,
                9125655.2034589
              ],
              [
                423260.3612078064,
                9126419.530057812
              ],
              [
                424263.8218519533,
                9127034.451531412
              ],
              [
                425351.12314218783,
                9127484.826472213
              ],
              [
                426495.4921121982,
                9127759.565154463
              ],
              [
                427668.7505999999,
                9127851.9026
              ],
              [
                428842.0090878016,
                9127759.565154463
              ],
              [
                429986.378057812,
                9127484.826472213
              ],
              [
                431073.6793480465,
                9127034.451531412
              ],
              [
                432077.13999219344,
                9126419.530057812
              ],
              [
                432972.051458899,
                9125655.2034589
              ],
              [
                433736.378057812,
                9124760.291992193
              ],
              [
                434351.29953141266,
                9123756.831348047
              ],
              [
                434801.67447221355,
                9122669.530057812
              ],
              [
                435076.41315446346,
                9121525.161087802
              ],
              [
                435168.7505999999,
                9120351.9026
              ]
            ]
          ]
        ]
      }
    },
    {
      "type": "Feature",
      "properties": {
        "fcode": null,
        "metadata": null,
        "namobj": "Sektor Bantul",
        "remark": null,
        "srs_id": null,
        "id": 14,
        "coordinate": null,
        "dms": null,
        "nama": "Pos Damkar Pundong",
        "alamat": "Jl. K.H. Wakhid Hasyim, Sumuran, Palbapang, Bantul",
        "Kontak": 2746462100.0,
        "Id": 14,
        "ID": 14,
        "Nama": "Pos Damkar Pundong",
        "NAMA": "Pos Damkar Pundong",
        "Kabupaten": "Kabupaten Bantul",
        "Kategori": "Eksisting"
      },
      "geometry": {
        "type": "MultiPolygon",
        "coordinates": [
          [
            [
              [
                432758.66920000035,
                9126747.9676
              ],
              [
                432666.3317544639,
                9125574.709112197
              ],
              [
                432391.593072214,
                9124430.340142187
              ],
              [
                431941.2181314131,
                9123343.038851952
              ],
              [
                431326.29665781243,
                9122339.578207806
              ],
              [
                430561.9700588995,
                9121444.6667411
              ],
              [
                429667.0585921939,
                9120680.340142187
              ],
              [
                428663.597948047,
                9120065.418668587
              ],
              [
                427576.29665781243,
                9119615.043727785
              ],
              [
                426431.92768780206,
                9119340.305045536
              ],
              [
                425258.66920000035,
                9119247.9676
              ],
              [
                424085.41071219865,
                9119340.305045536
              ],
              [
                422941.0417421883,
                9119615.043727785
              ],
              [
                421853.7404519538,
                9120065.418668587
              ],
              [
                420850.27980780683,
                9120680.340142187
              ],
              [
                419955.3683411013,
                9121444.6667411
              ],
              [
                419191.0417421883,
                9122339.578207806
              ],
              [
                418576.1202685876,
                9123343.038851952
              ],
              [
                418125.7453277867,
                9124430.340142187
              ],
              [
                417851.0066455368,
                9125574.709112197
              ],
              [
                417758.66920000035,
                9126747.9676
              ],
              [
                417851.0066455368,
                9127921.226087801
              ],
              [
                418125.7453277867,
                9129065.595057812
              ],
              [
                418576.1202685876,
                9130152.896348046
              ],
              [
                419191.0417421883,
                9131156.356992193
              ],
              [
                419955.3683411012,
                9132051.2684589
              ],
              [
                420850.27980780683,
                9132815.595057812
              ],
              [
                421853.7404519537,
                9133430.516531412
              ],
              [
                422941.0417421883,
                9133880.891472213
              ],
              [
                424085.41071219865,
                9134155.630154463
              ],
              [
                425258.66920000035,
                9134247.9676
              ],
              [
                426431.92768780206,
                9134155.630154463
              ],
              [
                427576.29665781243,
                9133880.891472213
              ],
              [
                428663.5979480469,
                9133430.516531412
              ],
              [
                429667.0585921939,
                9132815.595057812
              ],
              [
                430561.97005889943,
                9132051.2684589
              ],
              [
                431326.29665781243,
                9131156.356992193
              ],
              [
                431941.2181314131,
                9130152.896348046
              ],
              [
                432391.593072214,
                9129065.595057812
              ],
              [
                432666.3317544639,
                9127921.226087801
              ],
              [
                432758.66920000035,
                9126747.9676
              ]
            ]
          ]
        ]
      }
    },
    {
      "type": "Feature",
      "properties": {
        "fcode": null,
        "metadata": null,
        "namobj": "Postu Damkar Karangmojo",
        "remark": null,
        "srs_id": null,
        "id": 15,
        "coordinate": null,
        "dms": null,
        "nama": "Postu Damkar Karangmojo",
        "alamat": "Munggur, Ngipak, Kec. Karangmojo, Gunungkidul",
        "Kontak": 274391113.0
      },
      "geometry": {
        "type": "MultiPolygon",
        "coordinates": [
          [
            [
              [
                471479.6015999997,
                9120182.9027
              ],
              [
                471387.26415446325,
                9119009.644212198
              ],
              [
                471112.52547221334,
                9117865.275242187
              ],
              [
                470662.15053141245,
                9116777.973951953
              ],
              [
                470047.2290578118,
                9115774.513307806
              ],
              [
                469282.90245889884,
                9114879.6018411
              ],
              [
                468387.9909921932,
                9114115.275242187
              ],
              [
                467384.53034804633,
                9113500.353768587
              ],
              [
                466297.2290578118,
                9113049.978827786
              ],
              [
                465152.8600878014,
                9112775.240145536
              ],
              [
                463979.6015999997,
                9112682.9027
              ],
              [
                462806.343112198,
                9112775.240145536
              ],
              [
                461661.9741421876,
                9113049.978827786
              ],
              [
                460574.67285195313,
                9113500.353768587
              ],
              [
                459571.2122078062,
                9114115.275242187
              ],
              [
                458676.3007411006,
                9114879.6018411
              ],
              [
                457911.9741421876,
                9115774.513307806
              ],
              [
                457297.05266858696,
                9116777.973951953
              ],
              [
                456846.67772778607,
                9117865.275242187
              ],
              [
                456571.93904553616,
                9119009.644212198
              ],
              [
                456479.6015999997,
                9120182.9027
              ],
              [
                456571.93904553616,
                9121356.161187802
              ],
              [
                456846.67772778607,
                9122500.530157812
              ],
              [
                457297.05266858696,
                9123587.831448046
              ],
              [
                457911.9741421876,
                9124591.292092193
              ],
              [
                458676.30074110057,
                9125486.2035589
              ],
              [
                459571.2122078062,
                9126250.530157812
              ],
              [
                460574.6728519531,
                9126865.451631412
              ],
              [
                461661.9741421876,
                9127315.826572213
              ],
              [
                462806.343112198,
                9127590.565254463
              ],
              [
                463979.6015999997,
                9127682.9027
              ],
              [
                465152.8600878014,
                9127590.565254463
              ],
              [
                466297.2290578118,
                9127315.826572213
              ],
              [
                467384.5303480463,
                9126865.451631412
              ],
              [
                468387.9909921932,
                9126250.530157812
              ],
              [
                469282.9024588988,
                9125486.2035589
              ],
              [
                470047.2290578118,
                9124591.292092193
              ],
              [
                470662.15053141245,
                9123587.831448046
              ],
              [
                471112.52547221334,
                9122500.530157812
              ],
              [
                471387.26415446325,
                9121356.161187802
              ],
              [
                471479.6015999997,
                9120182.9027
              ]
            ]
          ]
        ]
      }
    }
  ]
}